[
    {
        "Altitude(m)": 622205.8483042236,
        "Argument of Periapsis(deg)": 0.0,
        "Eccentricity": 0.0,
        "Inclination(deg)": 60.0,
        "Latitude(deg)": -52.16238246049807,
        "Longitude(deg)": 157.70029227637815,
        "Mean Anomaly(deg)": 245.4545,
        "RAAN(deg)": 30.0,
        "Satellite Name": "Test1 147",
        "Satellite Number": 147,
        "Semi-Major Axis(m)": 6980739.136638005,
        "Time(s)": 0
    },
    {
        "Altitude(m)": 622344.7553021858,
        "Argument of Periapsis(deg)": 0.00010418945913296404,
        "Eccentricity": 0.0,
        "Inclination(deg)": 60.0,
        "Latitude(deg)": -52.519963150745674,
        "Longitude(deg)": 158.48150238730108,
        "Mean Anomaly(deg)": 246.07460614546184,
        "RAAN(deg)": 29.99957995086026,
        "Satellite Name": "Test1 147",
        "Satellite Number": 147,
        "Semi-Major Axis(m)": 6980739.136638005,
        "Time(s)": 10
    }
]